STARLINK-1277           
1 45369U 20019K   26069.00003471  .00111275  00000+0  20056-2 0  9998
2 45369  53.0509 151.1274 0004031  12.6993 253.0952 15.48940207  5753
STARLINK-1641           
1 46174U 20057BK  26068.90939695  .00039511  00000+0  68917-3 0  9990
2 46174  53.0502 283.9292 0000412 183.3564 176.7442 15.50347057306547
